OBJECT B                
1 51825U 22019B   25208.85422831  .00020087  00000+0  46995-3 0  9997
2 51825  97.3831 286.0267 0008931 226.9493 133.1007 15.42133500189334
